OBJECT_NAME,OBJECT_ID,EPOCH,MEAN_MOTION,ECCENTRICITY,INCLINATION,RA_OF_ASC_NODE,ARG_OF_PERICENTER,MEAN_ANOMALY,EPHEMERIS_TYPE,CLASSIFICATION_TYPE,NORAD_CAT_ID,ELEMENT_SET_NO,REV_AT_EPOCH,BSTAR,MEAN_MOTION_DOT,MEAN_MOTION_DDOT
CHUANGXIN 1-02 (CX-1-02),2008-056B,2026-05-21T07:00:21.032640,14.30146549,.00134386,98.6145,167.8252,215.4076,144.6215,0,U,33434,999,91477,-.6875151E-5,-.62E-6,0
STARS (KUKAI),2009-002G,2026-05-21T06:10:57.366624,14.95536601,.00067189,98.1539,87.4739,256.4563,103.5909,0,U,33498,999,93445,.25902757E-3,.2809E-4,0
KKS-1 (KISEKI),2009-002H,2026-05-21T06:27:59.418144,14.83043420,.0008553,98.1194,63.2863,27.3861,332.7802,0,U,33499,999,93220,.10912077E-3,.832E-5,0
UK-DMC 2,2009-041C,2026-05-21T05:52:28.900416,14.75977742,.0001581,97.8804,276.8760,78.8544,281.2844,0,U,35683,999,90259,.17180692E-4,.69E-6,0
OCEANSAT-2,2009-051A,2026-05-21T05:59:04.344576,13.99652018,.00147646,98.2303,130.7911,317.7843,42.2186,0,U,35931,999,87556,.23525961E-3,.307E-5,0
SWISSCUBE,2009-051B,2026-05-21T05:04:49.399104,14.62421846,.00056865,98.4053,48.6290,305.3397,54.7272,0,U,35932,999,88521,.13699775E-3,.644E-5,0
BEESAT-1,2009-051C,2026-05-20T10:53:59.071488,14.61668848,.00045104,98.3982,47.5514,327.5835,32.5088,0,U,35933,999,88513,.11465798E-3,.522E-5,0
ITUPSAT1,2009-051E,2026-05-21T04:11:14.436096,14.60394013,.00068628,98.4067,47.5032,332.8166,27.2673,0,U,35935,999,88479,.1117307E-3,.492E-5,0
DMSP 5D-3 F18 (USA 210),2009-057A,2026-05-21T06:27:10.221120,14.14880200,.00105458,98.9028,122.0989,333.6262,26.4373,0,U,35951,999,85578,.12998821E-3,.206E-5,0
PROBA-2,2009-059B,2026-05-21T01:46:36.311232,14.54849268,.00134308,98.2449,324.8034,10.4052,349.7421,0,U,36037,999,87758,.31374289E-4,.89E-6,0
YAOGAN-7,2009-069A,2026-05-21T05:04:58.444320,14.77978701,.00257413,98.0103,27.2413,124.3660,235.9990,0,U,36110,999,88564,.47218648E-4,.289E-5,0
XIWANG-1 (HOPE-1),2009-072B,2026-05-21T06:20:26.505888,13.16437287,.00069728,100.4020,95.5292,298.9262,61.1152,0,U,36122,999,78946,-.73602003E-3,-.325E-5,0
COSMOS 2463,2010-017A,2026-05-20T20:34:50.405376,13.71663620,.00356736,82.9596,269.7858,203.8386,325.0932,0,U,36519,999,80418,.34341002E-4,.46E-6,0
CARTOSAT-2B,2010-035A,2026-05-21T06:30:50.003712,14.78621621,.00099958,97.9964,191.9901,279.3141,80.6940,0,U,36795,999,85587,.13237645E-4,.44E-6,0
TISAT 1,2010-035E,2026-05-20T12:55:07.729824,15.30538753,.00028053,98.0706,84.6627,39.3668,320.7774,0,U,36799,999,86347,.47855205E-3,.14056E-3,0
YAOGAN-10,2010-038A,2026-05-21T06:46:43.462272,14.85254371,.00015486,97.8988,164.9015,91.7554,38.9273,0,U,36834,999,85321,.88961456E-4,.709E-5,0
SHIJIAN-6 04B (SJ-6 04B),2010-051B,2026-05-21T06:14:50.127360,14.99258826,.00115446,97.8703,146.3986,38.9403,321.2649,0,U,37180,999,85164,.9092608E-5,.49E-6,0
FENGYUN 3B,2010-059A,2026-05-21T07:17:06.701856,14.14834097,.00209385,98.9631,187.2013,262.7406,231.4596,0,U,37214,999,80362,-.11745955E-4,-.68E-6,0
COSMO-SKYMED 4,2010-060A,2026-05-21T07:18:30.535776,14.82156669,.00013966,97.8884,325.2937,84.9768,275.1604,0,U,37216,999,84058,-.48960617E-4,-.442E-5,0
O/OREOS (USA 219),2010-062C,2026-05-21T03:20:30.202080,14.93612628,.00126638,71.9679,141.6008,122.4180,237.8218,0,U,37224,999,11260,.12048064E-3,.121E-4,0
RESOURCESAT-2,2011-015A,2026-05-21T06:33:26.968320,14.21605822,.00107218,98.7652,208.8991,340.7693,19.3079,0,U,37387,999,78235,.45187163E-4,.55E-6,0
YOUTHSAT,2011-015B,2026-05-20T09:09:35.392896,14.25617104,.00156779,98.3671,115.6927,65.6227,90.4636,0,U,37388,999,78367,.65289831E-4,.114E-5,0
APRIZESAT 6,2011-044F,2026-05-21T04:48:03.628800,14.76872883,.00432781,98.2379,51.1472,170.5241,345.8480,0,U,37793,999,79316,.63324139E-4,.395E-5,0
JUGNU,2011-058B,2026-05-20T06:28:24.276288,14.13767623,.0018751,19.9595,118.0296,127.9200,259.9936,0,U,37839,999,75507,.49103E-4,.361E-5,0
SRMSAT,2011-058D,2026-05-21T04:59:07.267200,14.11569187,.00115924,19.9711,222.7748,267.6803,106.0791,0,U,37841,999,75400,.51021882E-4,.359E-5,0
