CHUANGXIN 1-02 (CX-1-02)
1 33434U 08056B   26141.29191010 -.00000062  00000+0 -68752-5 0  9995
2 33434  98.6145 167.8252 0013438 215.4076 144.6215 14.30146549914775
STARS (KUKAI)           
1 33498U 09002G   26141.25760841  .00002809  00000+0  25903-3 0  9995
2 33498  98.1539  87.4739 0006718 256.4563 103.5909 14.95536601934457
KKS-1 (KISEKI)          
1 33499U 09002H   26141.26943771  .00000832  00000+0  10912-3 0  9990
2 33499  98.1194  63.2863 0008553  27.3861 332.7802 14.83043420932208
UK-DMC 2                
1 35683U 09041C   26141.24477894  .00000069  00000+0  17181-4 0  9994
2 35683  97.8804 276.8760 0001581  78.8544 281.2844 14.75977742902597
OCEANSAT-2              
1 35931U 09051A   26141.24935584  .00000307  00000+0  23526-3 0  9990
2 35931  98.2303 130.7911 0014764 317.7843  42.2186 13.99652018875563
SWISSCUBE               
1 35932U 09051B   26141.21168286  .00000644  00000+0  13700-3 0  9992
2 35932  98.4053  48.6290 0005686 305.3397  54.7272 14.62421846885216
BEESAT-1                
1 35933U 09051C   26140.45415592  .00000522  00000+0  11466-3 0  9995
2 35933  98.3982  47.5514 0004510 327.5835  32.5088 14.61668848885136
ITUPSAT1                
1 35935U 09051E   26141.17447264  .00000492  00000+0  11173-3 0  9999
2 35935  98.4067  47.5032 0006862 332.8166  27.2673 14.60394013884797
DMSP 5D-3 F18 (USA 210) 
1 35951U 09057A   26141.26886830  .00000206  00000+0  12999-3 0  9999
2 35951  98.9028 122.0989 0010545 333.6262  26.4373 14.14880200855788
PROBA-2                 
1 36037U 09059B   26141.07403138  .00000089  00000+0  31374-4 0  9990
2 36037  98.2449 324.8034 0013430  10.4052 349.7421 14.54849268877580
YAOGAN-7                
1 36110U 09069A   26141.21178755  .00000289  00000+0  47219-4 0  9990
2 36110  98.0103  27.2413 0025741 124.3660 235.9990 14.77978701885643
XIWANG-1 (HOPE-1)       
1 36122U 09072B   26141.26419567 -.00000325  00000+0 -73602-3 0  9998
2 36122 100.4020  95.5292 0006972 298.9262  61.1152 13.16437287789469
COSMOS 2463             
1 36519U 10017A   26140.85752784  .00000046  00000+0  34341-4 0  9990
2 36519  82.9596 269.7858 0035673 203.8386 325.0932 13.71663620804184
CARTOSAT-2B             
1 36795U 10035A   26141.27141208  .00000044  00000+0  13238-4 0  9996
2 36795  97.9964 191.9901 0009995 279.3141  80.6940 14.78621621855873
TISAT 1                 
1 36799U 10035E   26140.53828391  .00014056  00000+0  47855-3 0  9992
2 36799  98.0706  84.6627 0002805  39.3668 320.7774 15.30538753863477
YAOGAN-10               
1 36834U 10038A   26141.28244748  .00000709  00000+0  88961-4 0  9990
2 36834  97.8988 164.9015 0001548  91.7554  38.9273 14.85254371853211
SHIJIAN-6 04B (SJ-6 04B)
1 37180U 10051B   26141.26030240  .00000049  00000+0  90926-5 0  9990
2 37180  97.8703 146.3986 0011544  38.9403 321.2649 14.99258826851649
FENGYUN 3B              
1 37214U 10059A   26141.30354979 -.00000068  00000+0 -11746-4 0  9994
2 37214  98.9631 187.2013 0020938 262.7406 231.4596 14.14834097803626
COSMO-SKYMED 4          
1 37216U 10060A   26141.30452009 -.00000442  00000+0 -48961-4 0  9996
2 37216  97.8884 325.2937 0001396  84.9768 275.1604 14.82156669840585
O/OREOS (USA 219)       
1 37224U 10062C   26141.13923845  .00001210  00000+0  12048-3 0  9997
2 37224  71.9679 141.6008 0012663 122.4180 237.8218 14.93612628112608
RESOURCESAT-2           
1 37387U 11015A   26141.27322880  .00000055  00000+0  45187-4 0  9990
2 37387  98.7652 208.8991 0010721 340.7693  19.3079 14.21605822782352
YOUTHSAT                
1 37388U 11015B   26140.38165964  .00000114  00000+0  65290-4 0  9993
2 37388  98.3671 115.6927 0015677  65.6227  90.4636 14.25617104783670
APRIZESAT 6             
1 37793U 11044F   26141.20004200  .00000395  00000+0  63324-4 0  9999
2 37793  98.2379  51.1472 0043278 170.5241 345.8480 14.76872883793165
JUGNU                   
1 37839U 11058B   26140.26972542  .00000361  00000+0  49103-4 0  9995
2 37839  19.9595 118.0296 0018751 127.9200 259.9936 14.13767623755077
SRMSAT                  
1 37841U 11058D   26141.20772300  .00000359  00000+0  51022-4 0  9993
2 37841  19.9711 222.7748 0011592 267.6803 106.0791 14.11569187754008
